GSAT0232 (GALILEO 32)   
1 61182U 24167A   26178.21100855  .00000067  00000+0  00000+0 0  9995
2 61182  55.1827 221.0386 0006275 229.7810 130.7838  1.70474501 11055
GSAT0226 (GALILEO 31)   
1 61183U 24167B   26180.40640610  .00000072  00000+0  00000+0 0  9994
2 61183  55.1811 220.9855 0003004 232.0216 127.2488  1.70474415 11058
GSAT0233 (GALILEO 33)   
1 67160U 25302A   26179.36372269 -.00000033  00000+0  00000+0 0  9990
2 67160  54.3415 101.8130 0000883 200.7223 335.1297  1.70474273  3315
GSAT0234 (GALILEO 34)   
1 67162U 25302C   26178.48815267 -.00000036  00000+0  00000+0 0  9997
2 67162  54.3430 101.8368 0002918 307.1901 231.4101  1.70474246  3359
